STARLINK-36817          
1 67882U 26035D   26159.81998483  .00031193  00000+0  96383-3 0  9998
2 67882  97.2841  93.1339 0001760 114.7782 245.3644 15.33468323 17954
STARLINK-36856          
1 67883U 26035E   26159.82270727  .00032152  00000+0  99327-3 0  9991
2 67883  97.2842  93.1303 0001670  80.8835 279.2596 15.33467849 17953
STARLINK-36842          
1 67884U 26035F   26159.77648191  .00028844  00000+0  89178-3 0  9996
2 67884  97.2839  93.0391 0001572  77.8218 282.3201 15.33465390 17944
STARLINK-36826          
1 67885U 26035G   26159.76559164  .00049359  00000+0  15182-2 0  9994
2 67885  97.2839  93.0520 0001804  71.8370 288.3069 15.33507918 17941
STARLINK-36390          
1 67886U 26035H   26159.77375993  .00026890  00000+0  83176-3 0  9996
2 67886  97.2828  93.0425 0002121 109.7778 250.3693 15.33464143 17944
STARLINK-36368          
1 67887U 26035J   26159.80910682  .00027919  00000+0  86336-3 0  9995
2 67887  97.2841  93.1498 0001648  80.0420 280.1009 15.33465196 17951
STARLINK-36801          
1 67888U 26035K   26159.81182619  .00031888  00000+0  98505-3 0  9999
2 67888  97.2840  93.1462 0001589  80.3852 279.7570 15.33471733 17959
STARLINK-36372          
1 67889U 26035L   26159.81726377  .00031214  00000+0  96435-3 0  9998
2 67889  97.2840  93.1380 0001569  76.0321 284.1097 15.33472406 17952
STARLINK-36363          
1 67890U 26035M   26159.76832538  .00031505  00000+0  97344-3 0  9994
2 67890  97.2839  93.0511 0001884 115.1256 245.0182 15.33467073 17943
STARLINK-36816          
1 67891U 26035N   26159.78316088  .00035339  00000+0  10910-2 0  9996
2 67891  97.2840  92.1212 0001863 115.0804 245.0632 15.33469383 17888
STARLINK-36813          
1 67892U 26035P   26159.78463927  .00034931  00000+0  10786-2 0  9990
2 67892  97.2837  93.1832 0001750  80.7330 279.4110 15.33466324 17953
STARLINK-36803          
1 67893U 26035Q   26159.79279679  .00047260  00000+0  14545-2 0  9997
2 67893  97.2819  93.1684 0001739 117.2067 242.9353 15.33500428 17957
STARLINK-36846          
1 67894U 26035R   26159.77104506  .00027611  00000+0  85394-3 0  9991
2 67894  97.2840  93.0477 0001784 112.7102 247.4329 15.33462986 17949
STARLINK-36866          
1 67895U 26035S   26159.82542242  .00032161  00000+0  99341-3 0  9994
2 67895  97.2840  93.1271 0001650  73.6569 286.4855 15.33472148 17956
STARLINK-36877          
1 67896U 26035T   26159.79823302  .00030085  00000+0  92995-3 0  9991
2 67896  97.2834  93.1650 0001754 108.1367 252.0067 15.33463433 17957
STARLINK-36870          
1 67897U 26035U   26159.80369147  .00007088  00000+0  22181-3 0  9993
2 67897  97.2839  93.1609 0003322 357.3028   2.8196 15.33421535 17953
STARLINK-36810          
1 67898U 26035V   26159.81454513  .00030230  00000+0  93408-3 0  9992
2 67898  97.2839  93.1428 0001654  83.2523 276.8908 15.33474854 17950
STARLINK-36878          
1 67899U 26035W   26159.78736043  .00036901  00000+0  11390-2 0  9990
2 67899  97.2833  93.1763 0001719  82.9429 277.2009 15.33465601 17957
STARLINK-36361          
1 67900U 26035X   26159.79007608  .00031663  00000+0  97839-3 0  9995
2 67900  97.2838  93.1746 0001527 119.5791 240.5604 15.33463537 17952
STARLINK-36336          
1 67901U 26035Y   26159.80638866  .00029081  00000+0  89896-3 0  9999
2 67901  97.2842  93.1524 0001645  80.7215 279.4213 15.33468588 17951
STARLINK-36876          
1 67902U 26035Z   26159.79551241  .00044392  00000+0  13692-2 0  9991
2 67902  97.2806  93.1675 0002778  75.2199 284.9351 15.33444327 17956
STARLINK-36257          
1 67903U 26035AA  26159.82814264  .00031810  00000+0  98277-3 0  9997
2 67903  97.2840  93.1237 0001532  75.1966 284.9446 15.33468705 17958
STARLINK-36814          
1 67904U 26036A   26159.09444793  .00024743  00000+0  90532-3 0  9997
2 67904  43.0009  95.1384 0003468 275.8101  84.2356 15.27588404 17548
STARLINK-36729          
1 67905U 26036B   26159.33337963  .00047735  00000+0  17338-2 0  9993
2 67905  43.0017  93.7395 0001555 273.5376 336.1835 15.27564049  5871
STARLINK-36763          
1 67906U 26036C   26158.30337343  .00018881  00000+0  69362-3 0  9997
2 67906  43.0058  99.5031 0002385 269.7474  90.3104 15.27592915 17421
STARLINK-36827          
1 67908U 26036E   26159.53801402  .00020318  00000+0  74573-3 0  9995
2 67908  43.0007  92.4201 0001533 264.2307  95.8370 15.27583274 17611
STARLINK-36822          
1 67909U 26036F   26159.53415352  .00018055  00000+0  66384-3 0  9997
2 67909  43.0028  92.3990 0002560 266.1076  93.9483 15.27586943 17614
STARLINK-36736          
1 67911U 26036H   26159.52387310  .00022772  00000+0  83419-3 0  9990
2 67911  43.0037  92.3035 0001904 265.1748  94.8886 15.27591564 17615
