OBJECT_NAME,OBJECT_ID,EPOCH,MEAN_MOTION,ECCENTRICITY,INCLINATION,RA_OF_ASC_NODE,ARG_OF_PERICENTER,MEAN_ANOMALY,EPHEMERIS_TYPE,CLASSIFICATION_TYPE,NORAD_CAT_ID,ELEMENT_SET_NO,REV_AT_EPOCH,BSTAR,MEAN_MOTION_DOT,MEAN_MOTION_DDOT
STARLINK-36817,2026-035D,2026-06-08T19:40:46.689312,15.33468323,.000176,97.2841,93.1339,114.7782,245.3644,0,U,67882,999,1795,.96383E-3,.31193E-3,0
STARLINK-36856,2026-035E,2026-06-08T19:44:41.908128,15.33467849,.000167,97.2842,93.1303,80.8835,279.2596,0,U,67883,999,1795,.99327E-3,.32152E-3,0
STARLINK-36842,2026-035F,2026-06-08T18:38:08.037024,15.33465390,.0001572,97.2839,93.0391,77.8218,282.3201,0,U,67884,999,1794,.89178E-3,.28844E-3,0
STARLINK-36826,2026-035G,2026-06-08T18:22:27.117696,15.33507918,.0001804,97.2839,93.0520,71.8370,288.3069,0,U,67885,999,1794,.15182E-2,.49359E-3,0
STARLINK-36390,2026-035H,2026-06-08T18:34:12.857952,15.33464143,.0002121,97.2828,93.0425,109.7778,250.3693,0,U,67886,999,1794,.83176E-3,.2689E-3,0
STARLINK-36368,2026-035J,2026-06-08T19:25:06.829248,15.33465196,.0001648,97.2841,93.1498,80.0420,280.1009,0,U,67887,999,1795,.86336E-3,.27919E-3,0
STARLINK-36801,2026-035K,2026-06-08T19:29:01.782816,15.33471733,.0001589,97.2840,93.1462,80.3852,279.7570,0,U,67888,999,1795,.98505E-3,.31888E-3,0
STARLINK-36372,2026-035L,2026-06-08T19:36:51.589728,15.33472406,.0001569,97.2840,93.1380,76.0321,284.1097,0,U,67889,999,1795,.96435E-3,.31214E-3,0
STARLINK-36363,2026-035M,2026-06-08T18:26:23.312832,15.33467073,.0001884,97.2839,93.0511,115.1256,245.0182,0,U,67890,999,1794,.97344E-3,.31505E-3,0
STARLINK-36816,2026-035N,2026-06-08T18:47:45.100032,15.33469383,.0001863,97.2840,92.1212,115.0804,245.0632,0,U,67891,999,1788,.1091E-2,.35339E-3,0
STARLINK-36813,2026-035P,2026-06-08T18:49:52.832928,15.33466324,.000175,97.2837,93.1832,80.7330,279.4110,0,U,67892,999,1795,.10786E-2,.34931E-3,0
STARLINK-36803,2026-035Q,2026-06-08T19:01:37.642656,15.33500428,.0001739,97.2819,93.1684,117.2067,242.9353,0,U,67893,999,1795,.14545E-2,.4726E-3,0
STARLINK-36846,2026-035R,2026-06-08T18:30:18.293184,15.33462986,.0001784,97.2840,93.0477,112.7102,247.4329,0,U,67894,999,1794,.85394E-3,.27611E-3,0
STARLINK-36866,2026-035S,2026-06-08T19:48:36.497088,15.33472148,.000165,97.2840,93.1271,73.6569,286.4855,0,U,67895,999,1795,.99341E-3,.32161E-3,0
STARLINK-36877,2026-035T,2026-06-08T19:09:27.332928,15.33463433,.0001754,97.2834,93.1650,108.1367,252.0067,0,U,67896,999,1795,.92995E-3,.30085E-3,0
STARLINK-36870,2026-035U,2026-06-08T19:17:18.943008,15.33421535,.0003322,97.2839,93.1609,357.3028,2.8196,0,U,67897,999,1795,.22181E-3,.7088E-4,0
STARLINK-36810,2026-035V,2026-06-08T19:32:56.699232,15.33474854,.0001654,97.2839,93.1428,83.2523,276.8908,0,U,67898,999,1795,.93408E-3,.3023E-3,0
STARLINK-36878,2026-035W,2026-06-08T18:53:47.941152,15.33465601,.0001719,97.2833,93.1763,82.9429,277.2009,0,U,67899,999,1795,.1139E-2,.36901E-3,0
STARLINK-36361,2026-035X,2026-06-08T18:57:42.573312,15.33463537,.0001527,97.2838,93.1746,119.5791,240.5604,0,U,67900,999,1795,.97839E-3,.31663E-3,0
STARLINK-36336,2026-035Y,2026-06-08T19:21:11.980224,15.33468588,.0001645,97.2842,93.1524,80.7215,279.4213,0,U,67901,999,1795,.89896E-3,.29081E-3,0
STARLINK-36876,2026-035Z,2026-06-08T19:05:32.272224,15.33444327,.0002778,97.2806,93.1675,75.2199,284.9351,0,U,67902,999,1795,.13692E-2,.44392E-3,0
STARLINK-36257,2026-035AA,2026-06-08T19:52:31.524096,15.33468705,.0001532,97.2840,93.1237,75.1966,284.9446,0,U,67903,999,1795,.98277E-3,.3181E-3,0
STARLINK-36814,2026-036A,2026-06-08T02:16:00.301152,15.27588404,.00034684,43.0009,95.1384,275.8101,84.2356,0,U,67904,999,1754,.90532043E-3,.24743E-3,0
STARLINK-36729,2026-036B,2026-06-08T08:00:04.000032,15.27564049,.0001556,43.0017,93.7395,273.5376,336.1835,0,U,67905,999,587,.17338E-2,.47735E-3,0
STARLINK-36763,2026-036C,2026-06-07T07:16:51.464352,15.27592915,.00023851,43.0058,99.5031,269.7474,90.3104,0,U,67906,999,1742,.69361577E-3,.18881E-3,0
STARLINK-36827,2026-036E,2026-06-08T12:54:44.411328,15.27583274,.0001534,43.0007,92.4201,264.2307,95.8370,0,U,67908,999,1761,.74573E-3,.20318E-3,0
STARLINK-36822,2026-036F,2026-06-08T12:49:10.864128,15.27586942,.000256,43.0028,92.3990,266.1076,93.9483,0,U,67909,999,1761,.66384E-3,.18055E-3,0
STARLINK-36736,2026-036H,2026-06-08T12:34:22.634976,15.27591564,.0001904,43.0037,92.3035,265.1748,94.8886,0,U,67911,999,1761,.83419E-3,.22772E-3,0
